[{"OBJECT_NAME":"STARLINK-36948","OBJECT_ID":"2026-053C","EPOCH":"2026-03-31T19:46:49.337760","MEAN_MOTION":15.80922063,"ECCENTRICITY":0.0001324,"INCLINATION":97.2849,"RA_OF_ASC_NODE":326.1846,"ARG_OF_PERICENTER":96.4238,"MEAN_ANOMALY":263.7181,"EPHEMERIS_TYPE":0,"CLASSIFICATION_TYPE":"U","NORAD_CAT_ID":68209,"ELEMENT_SET_NO":999,"REV_AT_EPOCH":353,"BSTAR":0.0014022,"MEAN_MOTION_DOT":0.00278537,"MEAN_MOTION_DDOT":0},{"OBJECT_NAME":"STARLINK-37119","OBJECT_ID":"2026-053D","EPOCH":"2026-03-31T19:45:45.732672","MEAN_MOTION":15.80870102,"ECCENTRICITY":0.0001315,"INCLINATION":97.2849,"RA_OF_ASC_NODE":326.185,"ARG_OF_PERICENTER":114.5831,"MEAN_ANOMALY":245.5575,"EPHEMERIS_TYPE":0,"CLASSIFICATION_TYPE":"U","NORAD_CAT_ID":68210,"ELEMENT_SET_NO":999,"REV_AT_EPOCH":355,"BSTAR":0.0012334,"MEAN_MOTION_DOT":0.00243425,"MEAN_MOTION_DDOT":0},{"OBJECT_NAME":"STARLINK-37120","OBJECT_ID":"2026-053E","EPOCH":"2026-03-31T19:44:39.576192","MEAN_MOTION":15.80907832,"ECCENTRICITY":7.7e-5,"INCLINATION":97.285,"RA_OF_ASC_NODE":326.1861,"ARG_OF_PERICENTER":80.1266,"MEAN_ANOMALY":280.0089,"EPHEMERIS_TYPE":0,"CLASSIFICATION_TYPE":"U","NORAD_CAT_ID":68211,"ELEMENT_SET_NO":999,"REV_AT_EPOCH":353,"BSTAR":0.0012973,"MEAN_MOTION_DOT":0.00256893,"MEAN_MOTION_DDOT":0},{"OBJECT_NAME":"STARLINK-37117","OBJECT_ID":"2026-053F","EPOCH":"2026-03-31T19:43:34.718304","MEAN_MOTION":15.80902358,"ECCENTRICITY":0.0001279,"INCLINATION":97.2845,"RA_OF_ASC_NODE":326.1875,"ARG_OF_PERICENTER":67.5999,"MEAN_ANOMALY":292.5404,"EPHEMERIS_TYPE":0,"CLASSIFICATION_TYPE":"U","NORAD_CAT_ID":68212,"ELEMENT_SET_NO":999,"REV_AT_EPOCH":355,"BSTAR":0.0012467,"MEAN_MOTION_DOT":0.00246497,"MEAN_MOTION_DDOT":0},{"OBJECT_NAME":"STARLINK-37116","OBJECT_ID":"2026-053G","EPOCH":"2026-03-31T19:42:29.767968","MEAN_MOTION":15.80916997,"ECCENTRICITY":0.0001302,"INCLINATION":97.2847,"RA_OF_ASC_NODE":326.1881,"ARG_OF_PERICENTER":95.204,"MEAN_ANOMALY":264.9376,"EPHEMERIS_TYPE":0,"CLASSIFICATION_TYPE":"U","NORAD_CAT_ID":68213,"ELEMENT_SET_NO":999,"REV_AT_EPOCH":355,"BSTAR":0.0014208,"MEAN_MOTION_DOT":0.00282303,"MEAN_MOTION_DDOT":0},{"OBJECT_NAME":"STARLINK-35854","OBJECT_ID":"2026-053H","EPOCH":"2026-03-31T19:41:24.820224","MEAN_MOTION":15.80917193,"ECCENTRICITY":0.0001265,"INCLINATION":97.2847,"RA_OF_ASC_NODE":326.1893,"ARG_OF_PERICENTER":68.2646,"MEAN_ANOMALY":291.8757,"EPHEMERIS_TYPE":0,"CLASSIFICATION_TYPE":"U","NORAD_CAT_ID":68214,"ELEMENT_SET_NO":999,"REV_AT_EPOCH":353,"BSTAR":0.0014244,"MEAN_MOTION_DOT":0.00283035,"MEAN_MOTION_DDOT":0},{"OBJECT_NAME":"STARLINK-36272","OBJECT_ID":"2026-053J","EPOCH":"2026-03-31T19:40:19.792128","MEAN_MOTION":15.80922003,"ECCENTRICITY":0.000115,"INCLINATION":97.2846,"RA_OF_ASC_NODE":326.19,"ARG_OF_PERICENTER":90.2119,"MEAN_ANOMALY":269.9281,"EPHEMERIS_TYPE":0,"CLASSIFICATION_TYPE":"U","NORAD_CAT_ID":68215,"ELEMENT_SET_NO":999,"REV_AT_EPOCH":353,"BSTAR":0.0014503,"MEAN_MOTION_DOT":0.0028844,"MEAN_MOTION_DDOT":0},{"OBJECT_NAME":"STARLINK-37014","OBJECT_ID":"2026-053K","EPOCH":"2026-03-31T19:39:15.007680","MEAN_MOTION":15.80918066,"ECCENTRICITY":0.00012,"INCLINATION":97.2848,"RA_OF_ASC_NODE":326.1911,"ARG_OF_PERICENTER":74.4731,"MEAN_ANOMALY":285.667,"EPHEMERIS_TYPE":0,"CLASSIFICATION_TYPE":"U","NORAD_CAT_ID":68216,"ELEMENT_SET_NO":999,"REV_AT_EPOCH":355,"BSTAR":0.0014825,"MEAN_MOTION_DOT":0.00295005,"MEAN_MOTION_DDOT":0},{"OBJECT_NAME":"STARLINK-37011","OBJECT_ID":"2026-053L","EPOCH":"2026-03-31T19:38:09.859488","MEAN_MOTION":15.80956536,"ECCENTRICITY":0.0001336,"INCLINATION":97.2844,"RA_OF_ASC_NODE":326.1924,"ARG_OF_PERICENTER":90.1857,"MEAN_ANOMALY":269.9564,"EPHEMERIS_TYPE":0,"CLASSIFICATION_TYPE":"U","NORAD_CAT_ID":68217,"ELEMENT_SET_NO":999,"REV_AT_EPOCH":355,"BSTAR":0.001869,"MEAN_MOTION_DOT":0.00376138,"MEAN_MOTION_DDOT":0},{"OBJECT_NAME":"STARLINK-37108","OBJECT_ID":"2026-053M","EPOCH":"2026-03-31T19:37:05.137248","MEAN_MOTION":15.8090365,"ECCENTRICITY":0.0001289,"INCLINATION":97.2846,"RA_OF_ASC_NODE":326.193,"ARG_OF_PERICENTER":66.1712,"MEAN_ANOMALY":293.9691,"EPHEMERIS_TYPE":0,"CLASSIFICATION_TYPE":"U","NORAD_CAT_ID":68218,"ELEMENT_SET_NO":999,"REV_AT_EPOCH":355,"BSTAR":0.0012721,"MEAN_MOTION_DOT":0.00251695,"MEAN_MOTION_DDOT":0},{"OBJECT_NAME":"STARLINK-37106","OBJECT_ID":"2026-053N","EPOCH":"2026-03-31T19:36:00.118656","MEAN_MOTION":15.80900626,"ECCENTRICITY":0.0001241,"INCLINATION":97.2846,"RA_OF_ASC_NODE":326.1946,"ARG_OF_PERICENTER":54.5393,"MEAN_ANOMALY":305.5991,"EPHEMERIS_TYPE":0,"CLASSIFICATION_TYPE":"U","NORAD_CAT_ID":68219,"ELEMENT_SET_NO":999,"REV_AT_EPOCH":355,"BSTAR":0.0011141,"MEAN_MOTION_DOT":0.00219568,"MEAN_MOTION_DDOT":0},{"OBJECT_NAME":"STARLINK-37030","OBJECT_ID":"2026-053P","EPOCH":"2026-03-31T19:33:50.534208","MEAN_MOTION":15.80884064,"ECCENTRICITY":0.0001453,"INCLINATION":97.2848,"RA_OF_ASC_NODE":326.1962,"ARG_OF_PERICENTER":60.9942,"MEAN_ANOMALY":299.1472,"EPHEMERIS_TYPE":0,"CLASSIFICATION_TYPE":"U","NORAD_CAT_ID":68220,"ELEMENT_SET_NO":999,"REV_AT_EPOCH":355,"BSTAR":0.0010124,"MEAN_MOTION_DOT":0.00198878,"MEAN_MOTION_DDOT":0},{"OBJECT_NAME":"STARLINK-37012","OBJECT_ID":"2026-053Q","EPOCH":"2026-03-31T19:34:55.245216","MEAN_MOTION":15.80899221,"ECCENTRICITY":0.0001278,"INCLINATION":97.2845,"RA_OF_ASC_NODE":326.195,"ARG_OF_PERICENTER":85.8125,"MEAN_ANOMALY":274.3289,"EPHEMERIS_TYPE":0,"CLASSIFICATION_TYPE":"U","NORAD_CAT_ID":68221,"ELEMENT_SET_NO":999,"REV_AT_EPOCH":355,"BSTAR":0.0011071,"MEAN_MOTION_DOT":0.00218132,"MEAN_MOTION_DDOT":0},{"OBJECT_NAME":"STARLINK-37110","OBJECT_ID":"2026-053R","EPOCH":"2026-03-31T21:03:54.514656","MEAN_MOTION":15.80901508,"ECCENTRICITY":0.0001145,"INCLINATION":97.2844,"RA_OF_ASC_NODE":326.2644,"ARG_OF_PERICENTER":98.1269,"MEAN_ANOMALY":262.0129,"EPHEMERIS_TYPE":0,"CLASSIFICATION_TYPE":"U","NORAD_CAT_ID":68222,"ELEMENT_SET_NO":999,"REV_AT_EPOCH":356,"BSTAR":0.0011305,"MEAN_MOTION_DOT":0.00222895,"MEAN_MOTION_DDOT":0},{"OBJECT_NAME":"STARLINK-37025","OBJECT_ID":"2026-053S","EPOCH":"2026-03-31T19:31:40.387296","MEAN_MOTION":15.8090886,"ECCENTRICITY":0.0001576,"INCLINATION":97.2847,"RA_OF_ASC_NODE":326.197,"ARG_OF_PERICENTER":43.4473,"MEAN_ANOMALY":316.6919,"EPHEMERIS_TYPE":0,"CLASSIFICATION_TYPE":"U","NORAD_CAT_ID":68223,"ELEMENT_SET_NO":999,"REV_AT_EPOCH":355,"BSTAR":0.0012462,"MEAN_MOTION_DOT":0.00246466,"MEAN_MOTION_DDOT":0},{"OBJECT_NAME":"STARLINK-36977","OBJECT_ID":"2026-053T","EPOCH":"2026-03-31T19:30:35.379936","MEAN_MOTION":15.80917063,"ECCENTRICITY":0.0001533,"INCLINATION":97.2846,"RA_OF_ASC_NODE":326.1978,"ARG_OF_PERICENTER":46.7901,"MEAN_ANOMALY":313.3496,"EPHEMERIS_TYPE":0,"CLASSIFICATION_TYPE":"U","NORAD_CAT_ID":68224,"ELEMENT_SET_NO":999,"REV_AT_EPOCH":353,"BSTAR":0.001246,"MEAN_MOTION_DOT":0.00246529,"MEAN_MOTION_DDOT":0},{"OBJECT_NAME":"STARLINK-36960","OBJECT_ID":"2026-053U","EPOCH":"2026-03-31T20:00:01.999008","MEAN_MOTION":15.80838983,"ECCENTRICITY":0.000136,"INCLINATION":97.2848,"RA_OF_ASC_NODE":326.2213,"ARG_OF_PERICENTER":100.7665,"MEAN_ANOMALY":19.9184,"EPHEMERIS_TYPE":0,"CLASSIFICATION_TYPE":"U","NORAD_CAT_ID":68225,"ELEMENT_SET_NO":999,"REV_AT_EPOCH":355,"BSTAR":0.00024002,"MEAN_MOTION_DOT":0.00046124,"MEAN_MOTION_DDOT":0}]
