STARLINK-36948          
1 68209U 26053C   26090.82418215  .00278537  00000+0  14022-2 0  9991
2 68209  97.2849 326.1846 0001324  96.4238 263.7181 15.80922063  3533
STARLINK-37119          
1 68210U 26053D   26090.82344598  .00243425  00000+0  12334-2 0  9997
2 68210  97.2849 326.1850 0001315 114.5831 245.5575 15.80870102  3554
STARLINK-37120          
1 68211U 26053E   26090.82268028  .00256893  00000+0  12973-2 0  9993
2 68211  97.2850 326.1861 0000770  80.1266 280.0089 15.80907832  3536
STARLINK-37117          
1 68212U 26053F   26090.82192961  .00246497  00000+0  12467-2 0  9993
2 68212  97.2845 326.1875 0001279  67.5999 292.5404 15.80902358  3552
STARLINK-37116          
1 68213U 26053G   26090.82117787  .00282303  00000+0  14208-2 0  9998
2 68213  97.2847 326.1881 0001302  95.2040 264.9376 15.80916997  3559
STARLINK-35854          
1 68214U 26053H   26090.82042616  .00283035  00000+0  14244-2 0  9990
2 68214  97.2847 326.1893 0001265  68.2646 291.8757 15.80917193  3532
STARLINK-36272          
1 68215U 26053J   26090.81967352  .00288440  00000+0  14503-2 0  9996
2 68215  97.2846 326.1900 0001150  90.2119 269.9281 15.80922003  3538
STARLINK-37014          
1 68216U 26053K   26090.81892370  .00295005  00000+0  14825-2 0  9996
2 68216  97.2848 326.1911 0001200  74.4731 285.6670 15.80918066  3556
STARLINK-37011          
1 68217U 26053L   26090.81816967  .00376138  00000+0  18690-2 0  9996
2 68217  97.2844 326.1924 0001336  90.1857 269.9564 15.80956536  3552
STARLINK-37108          
1 68218U 26053M   26090.81742057  .00251695  00000+0  12721-2 0  9994
2 68218  97.2846 326.1930 0001289  66.1712 293.9691 15.80903650  3559
STARLINK-37106          
1 68219U 26053N   26090.81666804  .00219568  00000+0  11141-2 0  9998
2 68219  97.2846 326.1946 0001241  54.5393 305.5991 15.80900626  3554
STARLINK-37030          
1 68220U 26053P   26090.81516822  .00198878  00000+0  10124-2 0  9994
2 68220  97.2848 326.1962 0001453  60.9942 299.1472 15.80884064  3551
STARLINK-37012          
1 68221U 26053Q   26090.81591719  .00218132  00000+0  11071-2 0  9991
2 68221  97.2845 326.1950 0001278  85.8125 274.3289 15.80899221  3552
STARLINK-37110          
1 68222U 26053R   26090.87771429  .00222895  00000+0  11305-2 0  9997
2 68222  97.2844 326.2644 0001145  98.1269 262.0129 15.80901508  3562
STARLINK-37025          
1 68223U 26053S   26090.81366189  .00246466  00000+0  12462-2 0  9990
2 68223  97.2847 326.1970 0001576  43.4473 316.6919 15.80908860  3555
STARLINK-36977          
1 68224U 26053T   26090.81290949  .00246529  00000+0  12460-2 0  9999
2 68224  97.2846 326.1978 0001533  46.7901 313.3496 15.80917063  3535
STARLINK-36960          
1 68225U 26053U   26090.83335647  .00046124  00000+0  24002-3 0  9992
2 68225  97.2848 326.2213 0001360 100.7665  19.9184 15.80838983  3555
